      2.10          N: GNSS NAV DATA                        RINEX VERSION / TYPE
fic2rin                                 06/14/2019 00:19:46 PGM / RUN BY / DATE
                                                            END OF HEADER
31 19  6 13  1 59 44.0 3.149732947350e-05-2.614797267597e-12 0.000000000000e+00
    6.000000000000e+00 9.928125000000e+01 4.435899058715e-09-2.331072982981e+00
    5.090609192848e-06 9.218087885529e-03 8.976086974144e-06 5.153632106781e+03
    3.527840000000e+05-1.136213541031e-07-6.636762372364e-02-1.490116119385e-07
    9.602879438931e-01 2.073750000000e+02 6.731016282417e-03-8.019262605905e-09
    2.000083311498e-10 1.000000000000e+00 2.057000000000e+03 0.000000000000e+00
    2.400000000000e+00 0.000000000000e+00-1.350417733192e-08 6.000000000000e+00
    3.489000000000e+05 4.000000000000e+00
31 19  6 13  3 59 44.0 3.147870302200e-05-2.614797267597e-12 0.000000000000e+00
    1.600000000000e+01 1.035625000000e+02 4.457328522767e-09-1.280834331822e+00
    5.325302481651e-06 9.217774844728e-03 9.033828973770e-06 5.153632802963e+03
    3.599840000000e+05 1.676380634308e-08-6.642587419572e-02-1.732259988785e-07
    9.602896028422e-01 2.065625000000e+02 6.697870947495e-03-8.065693111350e-09
    2.457245211269e-10 1.000000000000e+00 2.057000000000e+03 0.000000000000e+00
    2.400000000000e+00 0.000000000000e+00-1.350417733192e-08 1.600000000000e+01
    3.528000000000e+05 4.000000000000e+00
 2 19  6 13  4  0  0.0-2.360749058425e-04-8.981260180008e-12 0.000000000000e+00
    1.000000000000e+02 1.025000000000e+01 4.715553564591e-09-4.166019840020e-02
    3.576278686523e-07 1.889255316928e-02 9.637326002121e-06 5.153726041794e+03
    3.600000000000e+05-3.390014171600e-07 2.983529867400e+00 1.769512891769e-07
    9.552965771255e-01 1.976250000000e+02-1.736222070378e+00-8.399278435089e-09
    5.232360805973e-10 1.000000000000e+00 2.057000000000e+03 0.000000000000e+00
    2.400000000000e+00 0.000000000000e+00-2.048909664154e-08 1.000000000000e+02
    3.528000000000e+05 4.000000000000e+00
 1 19  6 13  4  0  0.0-3.978656604886e-05-9.663381206337e-12 0.000000000000e+00
    5.800000000000e+01 6.812500000000e+00 4.199103480943e-09-3.203541853634e-01
    5.345791578293e-07 8.927198010497e-03 9.600073099136e-06 5.153652069092e+03
    3.600000000000e+05 7.078051567078e-08 3.052583233167e+00 7.636845111847e-08
    9.762063768340e-01 2.054375000000e+02 7.152181678447e-01-7.953545582813e-09
    5.221646073947e-10 1.000000000000e+00 2.057000000000e+03 0.000000000000e+00
    2.400000000000e+00 0.000000000000e+00 5.587935447693e-09 5.800000000000e+01
    3.528000000000e+05 4.000000000000e+00
 5 19  6 13  4  0  0.0 5.634501576424e-07-1.136868377216e-13 0.000000000000e+00
    3.000000000000e+00-2.000000000000e+01 5.293791936254e-09 2.645435914624e+00
   -1.035630702972e-06 5.690396414138e-03 5.178153514862e-06 5.153699419022e+03
    3.600000000000e+05-6.332993507385e-08-2.215802935166e+00-1.080334186554e-07
    9.497428851291e-01 2.753750000000e+02 7.153603898145e-01-8.328561203718e-09
    8.464638300447e-11 1.000000000000e+00 2.057000000000e+03 0.000000000000e+00
    2.400000000000e+00 0.000000000000e+00-1.117587089539e-08 3.000000000000e+00
    3.528000000000e+05 4.000000000000e+00
 3 19  6 13  4  0  0.0 1.857192255557e-04-1.250555214938e-12 0.000000000000e+00
    6.000000000000e+01-1.428125000000e+01 5.060567935824e-09-1.276611029231e+00
   -7.115304470062e-07 2.241394482553e-03 4.753470420837e-06 5.153763090134e+03
    3.600000000000e+05 5.029141902924e-08-2.188717916864e+00 9.313225746155e-09
    9.628462131067e-01 2.900312500000e+02 6.014576539941e-01-8.317132156224e-09
    1.300054152474e-10 1.000000000000e+00 2.057000000000e+03 0.000000000000e+00
    2.400000000000e+00 0.000000000000e+00 1.862645149231e-09 6.000000000000e+01
    3.528000000000e+05 4.000000000000e+00
 7 19  6 13  4  0  0.0-4.339963197708e-05-7.617018127348e-12 0.000000000000e+00
    2.500000000000e+01 9.118750000000e+01 4.533760277885e-09-9.217110106547e-01
    4.701316356659e-06 1.283956272528e-02 8.402392268181e-06 5.153751245499e+03
    3.600000000000e+05 2.458691596985e-07-8.053553181673e-02 1.527369022369e-07
    9.557464668595e-01 2.155000000000e+02-2.459278924873e+00-8.148196547949e-09
    1.785788670980e-11 1.000000000000e+00 2.057000000000e+03 0.000000000000e+00
    2.400000000000e+00 0.000000000000e+00-1.117587089539e-08 2.500000000000e+01
    3.528000000000e+05 4.000000000000e+00
 6 19  6 13  4  0  0.0 1.794132404029e-04-1.057287590811e-11 0.000000000000e+00
    2.700000000000e+01 1.221875000000e+01 4.143386874409e-09-1.189473337882e-01
    4.190951585770e-07 1.504350919276e-03 9.259209036827e-06 5.153599807739e+03
    3.600000000000e+05-4.470348358154e-08 3.044305075686e+00-5.587935447693e-09
    9.758501080054e-01 2.050625000000e+02-1.073996734812e+00-7.879971089568e-09
    5.189501877869e-10 1.000000000000e+00 2.057000000000e+03 0.000000000000e+00
    2.400000000000e+00 0.000000000000e+00 4.190951585770e-09 2.700000000000e+01
    3.528000000000e+05 4.000000000000e+00
16 19  6 13  4  0  0.0-4.765577614307e-05-3.069544618484e-12 0.000000000000e+00
    2.600000000000e+01-1.218750000000e+00 4.207318108830e-09 2.749433195557e+00
   -2.384185791016e-07 1.077477599028e-02 2.546235918999e-06 5.153585296631e+03
    3.600000000000e+05-3.539025783539e-08 1.038514287317e+00-7.636845111847e-08
    9.828775934141e-01 3.441875000000e+02 5.821390527253e-01-8.116766667340e-09
   -1.375057276655e-10 1.000000000000e+00 2.057000000000e+03 0.000000000000e+00
    2.400000000000e+00 0.000000000000e+00-1.071020960808e-08 2.600000000000e+01
    3.528000000000e+05 4.000000000000e+00
13 19  6 13  4  0  0.0-5.931314080954e-05 1.818989403546e-12 0.000000000000e+00
    2.000000000000e+01 6.250000000000e-01 4.445899475273e-09 8.714005264496e-01
    9.685754776001e-08 3.519089077599e-03 1.089833676815e-05 5.153667154312e+03
    3.600000000000e+05-3.725290298462e-08-1.018743048954e+00 8.381903171539e-08
    9.677142193073e-01 1.742812500000e+02 1.273821240065e+00-7.934259065166e-09
   -3.785871982478e-10 1.000000000000e+00 2.057000000000e+03 0.000000000000e+00
    2.400000000000e+00 0.000000000000e+00-1.117587089539e-08 2.000000000000e+01
    3.528000000000e+05 4.000000000000e+00
 8 19  6 13  4  0  0.0-1.472351141274e-04-1.477928890381e-12 0.000000000000e+00
    6.700000000000e+01-8.578125000000e+01 4.092313318419e-09 2.011825871114e+00
   -4.401430487633e-06 4.394063027576e-03 8.407980203629e-06 5.153755107880e+03
    3.600000000000e+05-3.352761268616e-08 1.985778159745e+00-3.725290298462e-09
    9.701738688244e-01 2.228750000000e+02-2.128205501330e-01-7.908900866038e-09
   -2.325096849617e-10 1.000000000000e+00 2.057000000000e+03 0.000000000000e+00
    2.400000000000e+00 0.000000000000e+00 5.122274160385e-09 6.700000000000e+01
    3.528000000000e+05 4.000000000000e+00
27 19  6 13  4  0  0.0-1.564896665514e-04-1.000444171950e-11 0.000000000000e+00
    3.100000000000e+01-9.571875000000e+01 3.870875523217e-09 1.828662027845e+00
   -4.930421710014e-06 7.147475262173e-03 9.085983037949e-06 5.153651247025e+03
    3.600000000000e+05-9.126961231232e-08 1.997267466298e+00 9.313225746155e-09
    9.784734097793e-01 2.137812500000e+02 5.045201348316e-01-7.899614764949e-09
   -2.410814705824e-10 1.000000000000e+00 2.057000000000e+03 0.000000000000e+00
    2.400000000000e+00 0.000000000000e+00 1.396983861923e-09 3.100000000000e+01
    3.528000000000e+05 4.000000000000e+00
25 19  6 13  4  0  0.0-7.652165368199e-04-3.296918293927e-12 0.000000000000e+00
    2.100000000000e+01 5.875000000000e+00 4.470543358932e-09-2.039583501114e+00
    3.948807716370e-07 8.425865089521e-03 2.708286046982e-06 5.153700162888e+03
    3.600000000000e+05 5.587935447693e-08 9.550538643869e-01-1.080334186554e-07
    9.700141050039e-01 3.323750000000e+02 9.033766884651e-01-8.233200088688e-09
   -9.107522222000e-11 1.000000000000e+00 2.057000000000e+03 0.000000000000e+00
    2.400000000000e+00 0.000000000000e+00 6.053596735001e-09 2.100000000000e+01
    3.528000000000e+05 4.000000000000e+00
21 19  6 13  4  0  0.0-1.742355525494e-04 7.275957614183e-12 0.000000000000e+00
    2.600000000000e+01 2.556250000000e+01 4.558404161545e-09-2.162912207255e+00
    1.559033989906e-06 2.455170068424e-02 9.883195161819e-06 5.153723836899e+03
    3.600000000000e+05 3.557652235031e-07 2.987892170616e+00 3.166496753693e-07
    9.490592854544e-01 1.725937500000e+02-1.436544532154e+00-7.739250942295e-09
    6.560987577182e-10 1.000000000000e+00 2.057000000000e+03 0.000000000000e+00
    2.400000000000e+00 0.000000000000e+00-1.024454832077e-08 2.600000000000e+01
    3.528000000000e+05 4.000000000000e+00
18 19  6 13  4  0  0.0 6.148684769869e-05 3.183231456205e-12 0.000000000000e+00
    3.100000000000e+01 5.500000000000e+00 4.728768400756e-09-5.793380956428e-01
    3.725290298462e-07 1.543121400755e-02 1.007877290249e-05 5.153693967819e+03
    3.600000000000e+05-1.229345798492e-07 2.997129440597e+00 9.685754776001e-08
    9.547273674042e-01 1.902812500000e+02 1.395995709693e+00-8.352847929644e-09
    5.650235354982e-10 1.000000000000e+00 2.057000000000e+03 0.000000000000e+00
    2.400000000000e+00 0.000000000000e+00-5.587935447693e-09 3.100000000000e+01
    3.528000000000e+05 4.000000000000e+00
17 19  6 13  4  0  0.0 7.083127275109e-05 6.480149750132e-12 0.000000000000e+00
    2.500000000000e+01-7.543750000000e+01 3.658366671370e-09 1.765463339229e+00
   -3.969296813011e-06 1.283644966315e-02 8.597970008850e-06 5.153760414124e+03
    3.600000000000e+05 3.352761268616e-08 2.053552692267e+00-3.278255462646e-07
    9.840569043428e-01 2.253125000000e+02-1.712365747387e+00-7.705320957546e-09
   -6.857428496565e-11 1.000000000000e+00 2.057000000000e+03 0.000000000000e+00
    2.400000000000e+00 0.000000000000e+00-1.117587089539e-08 2.500000000000e+01
    3.528000000000e+05 4.000000000000e+00
